Name,Macroarea,Latitude,Longitude,Glottocode,ISO639P3code,Family,Subfamily,Genus,GenusIcon,ISO_codes,Country_ID,Source
Arabic (Egyptian),Africa,30.0,31.0,egyp1253,arz,Afro-Asiatic,,Semitic,cdd0000,arz,EG,Abdel-Massih-et-al-1979 Brustad-2000 Eisele-1999 Gary-and-Gamal-Eldin-1982 Kennedy-1960 Malherbe-and-Rosenberg-1996 McCarthy-1979a McCarthy-1979b Mitchell-1956 Mitchell-1962 Mitchell-and-Al-Hassan-1994 Moravcsik-1978 Tomiche-1964 Wise-1975
Alamblak,Papunesia,-4.66666666667,143.333333333,alam1246,amp,Sepik,,Sepik Hill,dff66ff,amp,PG,Bruce-1984 Nichols-1992
Amele,Papunesia,-5.25,145.583333333,amel1241,aey,Trans-New Guinea,,Madang,cff6600,aey,PG,Nichols-1992 Roberts-1987 Roberts-1990 Roberts-1993
Apurinã,South America,-9.0,-67.0,apur1254,apu,Arawakan,,Purus,c990099,apu,BR,Derbyshire-and-Payne-1990 Facundes-2000 Pickering-1977 Polak-1894
Arapesh (Mountain),Papunesia,-3.46666666667,143.166666667,buki1249,ape,Torricelli,,Kombio-Arapesh,c0000dd,ape,PG,Aronoff-1994 Conrad-and-Wogiga-1991 Dobrin-1998 Fortune-1940 Fortune-1942 Fraser-and-Corbett-1997 Gerstner-1963
Burmese,Eurasia,21.0,96.0,nucl1310,mya,Sino-Tibetan,Tibeto-Burman,Burmese-Lolo,f9999ff,mya,MM,Bernot-1980 Bradley-1995 Bybee-et-al-1994 Cornyn-1944 Cornyn-and-Roop-1968 Cornyn-and-Roop-1987 Esche-et-al-1988 Lehman-2001 Malherbe-and-Rosenberg-1996 Maun-Maun-Ngun-et-al-1963 Mazo-1978 Njun-et-al-1963 Okell-1969 Okell-1994 Richter-1983 Soe-1999 Stewart-1955 Watkins-2001 Wheatley-1982
Barasano,South America,-0.166666666667,-70.6666666667,bara1380,bsn,Tucanoan,,Tucanoan,ddd0000,bsn,CO,Barasana-1974 Garcia-and-Sanchez-1975 Huber-and-Reed-1992 Jones-and-Jones-1991 Smith-1973 Smith-and-Smith-1971
Basque,Eurasia,43.0,-3.0,basq1248,eus,,,,d990099,eus,FR ES,Allieres-1979 Arotcarena-1976 Aulestia-and-White-1992 Azkue-1906 Bybee-et-al-1994 Eguzkitza-1987 Everaert-2000 Hualde-and-Ortiz-de-Urbina-2003 Ithurry-1895 King-1993b Kuhnel-1999 Lafitte-1944 Lafitte-1962 Malherbe-and-Rosenberg-1996 Mejias-Bikandi-1999 Ndiaye-1970 Nichols-1992 Rebuschi-1984 Saltarelli-et-al-1988 Trask-1995 Trask-1997 Trask-2001 Urbina-1989 Van-Eys-1883 Zuniga-and-Fernandez-2019
Chamorro,Papunesia,13.45,144.75,cham1312,cha,Austronesian,,Chamorro,t9999ff,cha,GU,Chung-1983 Chung-1998 Cooreman-1982 Cooreman-1988 Costenoble-1940 Malherbe-and-Rosenberg-1996 Nichols-1992 Safford-1903-1905 Seiden-1960 Topping-1973 Topping-1980a Topping-1980b Topping-et-al-1975 Witucki-1974
Daga,Papunesia,-10.0,149.333333333,daga1275,dgz,Dagan,,Dagan,sdd0000,dgz,PG,Murane-1974 Murane-and-Murane-1972
English,Eurasia,52.0,0.0,stan1293,eng,Indo-European,,Germanic,cff4400,eng,IE GB,Dahl-1985 Erickson-2001 Gimson-1970 Leech-and-Svartvik-1994 Moulton-1962 Quirk-et-al-1972 Quirk-et-al-1985 Trommelen-and-Zonneveld-1999b
Fijian,Papunesia,-17.8333333333,178.0,fiji1243,fij,Austronesian,Eastern Malayo-Polynesian,Oceanic,c0000dd,fij,FJ,Capell-1973 Churchward-1941 Churchward-1973 Dixon-1988 Milner-1972 Schutz-1985
Finnish,Eurasia,62.0,25.0,finn1318,fin,Uralic,Finno-Ugric,Finnic,f9999ff,fin,FI,Dahl-1985 Fromm-1982 Fromm-and-Sadeniemi-1956 Hakulinen-and-Karlsson-1979 Harms-1964 Haspelmath-1997 Jeliseev-1993 Kangasniemi-1992 Karlsson-1978 Karlsson-1982 Karlsson-1983 Karlsson-1999 Karlsson-2000 Laanest-1982 Laury-1995 Lehtinen-1970 Mitchell-2001 Neuvonen-1935 Sulkala-and-Karjalainen-1992 Whitney-1973 Wiik-1965 Wuolle-1967
French,Eurasia,48.0,2.0,stan1290,fra,Indo-European,,Romance,cffcc00,fra,CH FR,Byrne-et-al-1986 Dahl-1985 Dell-1984 Dubois-et-al-1955 Fougeron-and-Smith-1999 Fox-2001 Guentcheva-and-Riviere-2007 Harris-1988 Harris-1997 Haspelmath-1997 Judge-and-Healey-1985 LHuillier-1999 Lausberg-1972 Roca-1999 Sten-1963 Weinrich-1982 van-Oostendorp-1995
Georgian,Eurasia,42.0,44.0,nucl1302,kat,Kartvelian,,Kartvelian,f000000,kat,GE,Aronson-1982 Aronson-1991 Boeder-2000 Cherchi-1999 Chikobava-1967 Dahl-1985 Fahnrich-1987 Harris-1981a Harris-1991a Hewitt-1995 Malherbe-and-Rosenberg-1996 Neisser-1953 Robins-and-Waterson-1952 Rudenko-1972 Selmer-1935 Torikashvili-1992 Tschenkeli-1958 Vogt-1938 Vogt-1958 Vogt-1971
German,Eurasia,52.0,10.0,stan1295,deu,Indo-European,,Germanic,cff4400,deu,CH DE AT,Borgert-and-Nyhan-1975 Breul-1906 Curme-1922 Dahl-1985 Duden-1998 Durrell-1992 Esau-1973 Harbert-1977 Jessen-1999 Kohler-1999 Lederer-1969 Lide-and-Magnusson-1970 Moulton-1962 Palmer-1986 Wangler-1972 Wiemer-and-Nedjalkov-2007 Zifonun-et-al-1997
Greek (Modern),Eurasia,39.0,22.0,mode1248,ell,Indo-European,,Greek,cffffcc,ell,GR,Bergman-1968 Christiades-1980 Dahl-1985 Drachman-and-Malikouti-Drachman-1999 Everaert-2000 Haberland-and-Macrakis-1992 Haspelmath-1997 Hedin-1995 Holton-et-al-1997 Householder-et-al-1964 Joseph-1998 Joseph-and-Philippaki-Warburton-1987 Mackridge-1985 Malherbe-and-Rosenberg-1996 Malikouti-Drachman-and-Drachman-1981 Palmer-1986 Ruge-1986 Sofroniou-1962
Greenlandic (West),Eurasia,64.0,-51.0,kala1399,kal,Eskimo-Aleut,,Eskimo,t990099,kal,GL,Dahl-1985 Fortescue-1984 Fortescue-2007 Rischel-1974 Schultz-Lorentzen-1945 Vakhtin-1997 Woodbury-1977
Guaraní,South America,-26.0,-56.0,para1311,gug,Tupian,,Tupi-Guaraní,dffff00,gug,PY,Ayala-1993 Bridgeman-1961 Dahl-1985 Gregores-and-Suarez-1967 Guasch-1976 Guasch-1996 Guasch-and-Ortiz-1986 Jensen-1998 Krivoshein-de-Canese-1983 Lunt-1973 Malherbe-and-Rosenberg-1996 Nichols-1992 Rosbottom-1965 Rosbottom-1967 Rosbottom-1968 Uldall-1956
Hausa,Africa,12.0,7.0,haus1257,hau,Afro-Asiatic,Chadic,West Chadic,c9999ff,hau,NG NE,Abdoulaye-2004 Abraham-1941 Cowan-and-Schuh-1976 Dobronravin-and-Smirnova-2001 Haspelmath-1997 Howeidy-1959 Jungraithmayr-and-Mohlig-1976 Kraft-1963 Kraft-and-Kirk-Greene-1973 Kraft-and-Kraft-1973 Malherbe-and-Rosenberg-1996 Migeod-1914 Newman-1979 Newman-1990 Newman-2000 Newman-and-Schuh-1974 Nichols-1992 Robinson-1942 Sapir-1949 Schuh-and-Bagari-1999 Schuh-and-Yalwa-1999 Shcheglov-1970 Smirnova-1982 Wolff-1993
Hindi,Eurasia,25.0,77.0,hind1269,hin,Indo-European,,Indic,cff6600,hin,IN,Abbi-1992 Butt-1994 Dahl-1985 Davison-2000 Emeneau-1980 Fairbanks-1981 Gil-1994b Harley-1944 Haspelmath-1997 Kachru-1980 Kelkar-1968 Malherbe-and-Rosenberg-1996 McGregor-1972 McGregor-1977 McGregor-1992a McGregor-1995 Ohala-1983 Ohala-1999 Sandahl-2000 Sharma-and-Vermeer-1963 Snell-and-Weightman-1989 Tikkanen-1991
Indonesian,Papunesia,0.0,106.0,indo1316,ind,Austronesian,,Malayo-Sumbawan,d990099,ind,ID,Alwi-et-al-1998 Chung-1976 Dahl-1985 Danusugondo-1975 Echols-and-Shadily-1961 Echols-and-Shadily-1963 Echols-and-Shadily-1990 Halim-1974 Kahler-1965 Krause-1994 Macdonald-1976 Malherbe-and-Rosenberg-1996 Mintz-1994 Ogloblin-and-Nedjalkov-2007 Pino-and-Wittermans-1955 Roels-Sianturi-et-al-1990 Salim-2001 Samsuri-1971 Sarumpaet-and-Mackie-1966 Sneddon-1996 Sneddon-1996a Sneddon-1996b Steinhauer-2001 Teselkin-and-Alieva-1960
Jakaltek,North America,15.6666666667,-91.6666666667,,,Mayan,,Mayan,tff6600,jac,GT,Campbell-et-al-1988 Craig-1977 Craig-1986 Day-1973 Day-1977 Grinevald-nd Suarez-1983b Van-Valin-1981
Kewa,Papunesia,-6.5,143.833333333,kewa1250,,Trans-New Guinea,,Engan,caa0000,kew,PG,Franklin-1964 Franklin-1967 Franklin-1971 Franklin-and-Franklin-1962 Franklin-and-Franklin-1978 Nichols-1992
Khalkha,Eurasia,47.0,105.0,halh1238,khk,Altaic,,Mongolic,d009900,khk,MN,Beffa-and-Hamayon-1975 Binnick-1979 Binnick-2001 Chinggaltai-1952 Hamayon-et-al-1975 Hangin-1968 Jakhtonova-1997 Kuzmenkov-2001 Kuzmenkov-et-al-2007 Luvsanvandan-1964 Malherbe-and-Rosenberg-1996 Nichols-1992 Orlovskaja-1961 Poppe-1937 Poppe-1951 Poppe-1954 Poppe-1970 Poppe-1991 Sanzheev-1959 Sanzheev-and-Todaeva-1993 Sanzheyev-1973 Street-1963 Svantesson-1985 Svantesson-1991 Svantesson-2003 Vietze-1969 Vietze-1988
Nama,Africa,-25.5,18.0,nama1264,naq,Khoe-Kwadi,,Khoe-Kwadi,f9999ff,naq,,Bohm-1985 Hagman-1973 Hagman-1977 Ladefoged-and-Traill-1984 Nichols-1992 Rust-1965 Stolz-1996 Vossen-1997
Korean,Eurasia,37.5,128.0,kore1280,kor,,,,fffcc00,kor,KR KP,Chang-1996 Cho-1967 Gil-1991 Kim-1972 Kim-1986 Lee-1989 Lee-1991 Lee-1999 Lee-and-Ramsey-2000 Lizotte-1983 Malherbe-and-Rosenberg-1996 Martin-1951 Martin-1954 Martin-and-Lee-1969 Ramstedt-1968 Sohn-1994 Sohn-1999 Song-1988 Underwood-1954 Wymann-1996
Lango,Africa,2.16666666667,33.0,lang1324,laj,Eastern Sudanic,,Nilotic,sffcc00,laj,UG,Noonan-1992 Okello-1975
Malagasy,Africa,-20.0,47.0,plat1254,plt,Austronesian,,Barito,t990099,plt,MG,Bennett-1986 Builles-1998 Comrie-1981b Dahl-1951 Dahl-1952 Dez-1980a Dez-1980b Dez-1990 Domenichini-Ramiaramanana-1977 Dyen-1971b Ferrand-1903 Kartashova-1993 Keenan-1976 Keenan-2000 Korneev-1966 Malherbe-and-Rosenberg-1996 Manaster-Ramer-1995 Paginton-1970 Rabenilaina-1983 Rajaonarimanana-1995 Rajemisa-Raolison-1969 Rajomarimanana-and-Verin-1997 Randriamasimanana-1986 Randriambeloma-1985 Rasoloson-1997 Rasoloson-and-Rubino-2004 Richardson-1885
Mapudungun,South America,-38.0,-72.0,mapu1245,arn,Araucanian,,Araucanian,daa0000,arn,CL,Augusta-1903 Calendino-1987 De-Augusta-1903 Echeverria-and-Contreras-1965 Nichols-1992 Salas-1984 Salas-1991 Salas-1992 Smeets-1989 Suarez-1959 Zuniga-2000 de-Moesbach-1962
Mixtec (Chalcatongo),North America,17.05,-97.5833333333,sanm1295,mig,Oto-Manguean,,Mixtecan,tff4400,mig,MX,Macaulay-1996 Macaulay-2005 Nichols-1992
Oromo (Harar),Africa,9.0,42.0,east2652,hae,Afro-Asiatic,Cushitic,Lowland East Cushitic,cff6600,hae,ET,Heine-1981 Nichols-1992 Owens-1985
Persian,Eurasia,32.0,54.0,west2369,pes,Indo-European,,Iranian,cff66ff,pes,IR,Alavi-and-Lorenz-1988 Boyle-1966 Comrie-1981b Dahl-1985 Elwell-Sutton-1941 Elwell-Sutton-1963 Haspelmath-1997 Jones-1809 Lambton-1953 Lambton-1967 Lambton-1974 Lazard-1957a Lazard-1957b Lazard-1992 Mahootian-1997 Majidi-1986 Majidi-1990 Majidi-and-Ternes-1999 Malherbe-and-Rosenberg-1996 Netzer-1971 Obolensky-et-al-1963 Rastorgueva-1964 Rubinchik-1960 Windfuhr-1979 Windfuhr-1982 Windfuhr-1987
Quechua (Imbabura),South America,0.333333333333,-78.0,imba1240,qvi,Quechuan,,Quechuan,cffffcc,qvi,EC,Cole-1982 Cole-1985 Derbyshire-and-Payne-1990 Jake-1985
Russian,Eurasia,56.0,38.0,russ1263,rus,Indo-European,,Slavic,cffff00,rus,RU,Berneker-and-Vasmer-1971 Beyer-2001 Bivon-1971 Borras-and-Christian-1959 Boyanus-1955 Comrie-1989 Corbett-1991 Dahl-1985 Fraser-and-Corbett-1995 Halle-1959 Hamilton-1980 Haspelmath-1997 Jones-and-Ward-1969 Kodzasov-1999b Krylova-and-Khavronina-1976 Launer-1974 Pulkina-1978 Pulkina-and-Zakhava-Nekrasova-1974 Stilman-and-Harkins-1964 Tauscher-and-Kirschbaum-1963 Unbegaun-1957 Wade-1992 Wedel-and-Romanov-1964
Sango,Africa,5.0,18.0,sang1328,sag,Niger-Congo,Adamawa-Ubangi,Ubangi,dffff00,sag,CF,Didi-Kidiri-1995 Malherbe-and-Rosenberg-1996 Samarin-1967a Samarin-1967b Samarin-and-Walker-1994 Thornell-1997
Sanuma,South America,4.5,-64.6666666667,sanu1240,xsu,Yanomam,,Yanomam,t990099,xsu,BR VR,Aikhenvald-and-Dixon-1999 Borgman-1990 Derbyshire-and-Payne-1990
Spanish,Eurasia,40.0,-4.0,stan1288,spa,Indo-European,,Romance,cffcc00,spa,ES,Alarcos-Llorach-1965 Ashcom-and-Goodell-1955 Berschin-etal-1995 Butt-and-Benjamin-1988 Butt-and-Benjamin-1994 Butt-and-Benjamin-2000 Cuyas-1972 Dahl-1985 Green-1988 Harris-1969a Harris-1983 Jarvis-et-al-1981 Lopez-2001 Navarro-1961 Navarro-1965 Otero-1999 Roca-1991 Roca-1999 Saporta-and-Contreras-1962
Swahili,Africa,-6.5,39.0,swah1253,swh,Niger-Congo,Benue-Congo,Bantoid,d0000dd,swh,TZ,Abdulaziz-1996 Ashton-1944 Ashton-1947 Ashton-1969 Blake-1994 Brandon-1974 Contini-Morava-1989 Contini-Morava-1997 Corbett-1991 Gregersen-1967 Gromova-and-Oxotina-1995 Haspelmath-1997 Hurskainen-1989 Johnson-and-Madan-1939 Loogman-1965 Malherbe-and-Rosenberg-1996 Mohlig-and-Heine-1999 Myachina-1981 Njogu-2001b Perrott-1950 Polome-nd Snoxall-1958 Vitale-1981 Wald-1975 Wald-1987 Welmers-1973 Whiteley-1968 Wilson-1970
Tagalog,Papunesia,15.0,121.0,taga1270,tgl,Austronesian,,Greater Central Philippine,cffffcc,tgl,PH,Aldridge-2004 Bloomfield-1917 De-Guzman-1978 English-1965 Himmelmann-1999 Kolmer-1998 Kroeger-1993 Kruz-and-Shkarban-1966 Llamzon-1966 Llamzon-1976 Malherbe-and-Rosenberg-1996 Rachkov-2001 Ramos-1971 Ramos-and-Morales-Goulet-1981 Rubino-1998a Schachter-and-Otanes-1972 Schachter-and-Otanes-1983 Shkarban-1998 Shkarban-2001 Shkarban-and-Rachkov-2007
Thai,Eurasia,16.0,101.0,thai1261,tha,Tai-Kadai,,Kam-Tai,sff66ff,tha,TH,Abramson-1962 Anthony-et-al-1968 Bisang-1991 Bisang-1992 Burusphat-1991 Campbell-1964 Campbell-1968 Campbell-2000 Campbell-and-Shaweevongse-1957 Campbell-and-Shaweevongse-1962 Cooke-1968 Dahl-1985 Diller-1994 Haas-1946 Haas-1964 Hudak-1987 Kalaya-and-Abramson-1999 Kruatrachue-1960 Malherbe-and-Rosenberg-1996 Morezh-et-al-1961 Needleman-1973 Noss-1954 Noss-1964 Robertson-1969 Smyth-2002 Vichit-Vadakan-1976 Warotamasikkhadit-1972 Yates-and-Tryon-1970
Turkish,Eurasia,39.0,35.0,nucl1301,tur,Altaic,,Turkic,d0000dd,tur,TR,Aksu-Koc-and-Slobin-1986 Comrie-1998 Dahl-1985 Darwin-1872 Erguvanli-1984 Godel-1945 Haspelmath-1997 Kononov-1941 Kononov-1956 Kornfilt-1997 Kornrumpf-1960 Lees-1961 Lewis-1967 Malherbe-and-Rosenberg-1996 Nemeth-1962 Sezer-1983 Swift-1963 Thomas-1967 Underhill-1976 Zimmer-and-Orgun-1999 van-Schaaik-1994
Vietnamese,Eurasia,10.5,106.5,viet1252,vie,Austro-Asiatic,Mon-Khmer,Viet-Muong,sffffcc,vie,VN,Binh-1971 Bisang-1991 Bisang-1992 Bystrov-and-Stankevich-2001 Bystrov-and-Stankevich-2007 Emeneau-1951 Hoang-1982 Huffman-and-Hai-1980 Hung-1979 Jones-and-Thong-1960 Malherbe-and-Rosenberg-1996 Nguyen-1966 Nguyen-1974a Nguyen-1974b Nguyen-1975 Nguyen-1990 Nguyen-1997 Nguyen-2001 Solncev-et-al-1960 Thompson-1965 Thompson-1987 Thompson-1991 Van-Chinh-1970 Vu-1998 Vuong-Gia-Thuy-1975
Wichí,South America,-22.5,-62.5833333333,wich1264,mzh,Matacoan,,Matacoan,tff4400,mzh,BO AR,Hunt-1940 Remedi-1896 Tovar-1981 Vinas-Urquiza-1970 Vinas-Urquiza-1974
Yagua,South America,-3.5,-72.0,yagu1244,yad,Peba-Yaguan,,Peba-Yaguan,c009900,yad,PE,Derbyshire-and-Payne-1990 Everett-1989 Nichols-1992 Payne-1985 Payne-1990a Payne-1992 Payne-1997 Payne-and-Payne-1990 Powlison-1995
Yaqui,North America,27.5,-110.25,yaqu1251,yaq,Uto-Aztecan,,Cahita,fffffcc,yaq,MX,Dedrick-and-Casad-1999 Escalante-1990 Jelinek-1998 Johnson-1962 Kurath-and-Spicer-1947 Lindenfeld-1973 Shaul-1999
Yoruba,Africa,8.0,4.33333333333,yoru1245,yor,Niger-Congo,Benue-Congo,Defoid,f990099,yor,NG BJ,Akinlabi-2001 Ashiwaju-1968 Awobuluyi-1978 Bamgbose-1966 Dahl-1985 Jakovleva-1963 Malherbe-and-Rosenberg-1996 Nichols-1992 Ogunbowale-1970 Rowlands-1965 Rowlands-1969 Ward-1952 Welmers-1973

